0 COSMOS 2251 DEB
1 34396U 93036QM  13282.41399135  .00001877  00000-0  64667-3 0  2287
2 34396 074.0446 147.0291 0020454 214.8182 201.9905 14.36515941240985
0 COSMOS 2251 DEB
1 34396U 93036QM  13283.46097944  .00001840  00000-0  63415-3 0  2297
2 34396 074.0444 145.1066 0020406 212.6530 216.4232 14.36519192241136
0 COSMOS 2251 DEB
1 34396U 93036QM  13286.38337788  .00002188  00000-0  75216-3 0  2315
2 34396 074.0450 139.7419 0020352 206.4126 209.7052 14.36526565241559
0 COSMOS 2251 DEB
1 34396U 93036QM  13287.43054127  .00002488  00000-0  85395-3 0  2328
2 34396 074.0446 137.8189 0020306 204.2275 225.1197 14.36530733241708
0 COSMOS 2251 DEB
1 34396U 93036QM  13288.76454356  .00002872  00000-0  98402-3 0  2334
2 34396 074.0442 135.3691 0020246 201.3391 284.0624 14.36540149241896
0 COSMOS 2251 DEB
1 34396U 93036QM  13289.80491064  .00003201  00000-0  10955-2 0  2341
2 34396 074.0440 133.4586 0020202 199.1498 264.3996 14.36545477242040
0 COSMOS 2251 DEB
1 34396U 93036QM  13290.99236928  .00002771  00000-0  94961-3 0  2351
2 34396 074.0439 131.2777 0020145 196.6758 285.4307 14.36551616242214
0 COSMOS 2251 DEB
1 34396U 93036QM  13292.50457625  .00002943  00000-0  10078-2 0  2367
2 34396 074.0439 128.5004 0020083 193.5332 185.9549 14.36558368242438
0 COSMOS 2251 DEB
1 34396U 93036QM  13293.77401270  .00003366  00000-0  11512-2 0  2377
2 34396 074.0442 126.1689 0020044 190.8131 271.0842 14.36563964242610
0 COSMOS 2251 DEB
1 34396U 93036QM  13295.51056144  .00003615  00000-0  12353-2 0  2389
2 34396 074.0445 122.9796 0019969 187.1928 251.9107 14.36574895242866
